[{"OBJECT_NAME":"DAMPE","OBJECT_ID":"2015-078A","EPOCH":"2026-03-09T23:55:00.527232","MEAN_MOTION":15.30502084,"ECCENTRICITY":0.00138005,"INCLINATION":97.4588,"RA_OF_ASC_NODE":73.9866,"ARG_OF_PERICENTER":70.6942,"MEAN_ANOMALY":289.579,"EPHEMERIS_TYPE":0,"CLASSIFICATION_TYPE":"U","NORAD_CAT_ID":41173,"ELEMENT_SET_NO":999,"REV_AT_EPOCH":56937,"BSTAR":9.1158173e-5,"MEAN_MOTION_DOT":2.617e-5,"MEAN_MOTION_DDOT":0},{"OBJECT_NAME":"STARLINK-2734","OBJECT_ID":"2021-044V","EPOCH":"2026-03-09T09:54:59.560704","MEAN_MOTION":15.30191006,"ECCENTRICITY":0.00011795,"INCLINATION":53.1598,"RA_OF_ASC_NODE":115.1298,"ARG_OF_PERICENTER":87.3205,"MEAN_ANOMALY":272.7931,"EPHEMERIS_TYPE":0,"CLASSIFICATION_TYPE":"U","NORAD_CAT_ID":48657,"ELEMENT_SET_NO":999,"REV_AT_EPOCH":26378,"BSTAR":-3.477763e-6,"MEAN_MOTION_DOT":-4.62e-6,"MEAN_MOTION_DDOT":0}]
